COSMOS 1408 DEB         
1 50032U 82092RU  26203.00825533  .00004241  00000+0  80079-4 0  9998
2 50032  82.5619 191.2785 0016838 124.6786 235.6054 15.47943238260241
COSMOS 1408 DEB         
1 50058U 82092SW  26204.00843852  .00086707  00000+0  34966-3 0  9991
2 50058  82.6059 193.1780 0005065   2.5195 357.6100 15.86089669263008
COSMOS 1408 DEB         
1 50621U 82092ALR 26204.00462597  .00048109  00000+0  36535-3 0  9998
2 50621  82.5637 200.1353 0020199  51.8631 308.4448 15.71835693257245
